     3.02           N: GNSS NAV DATA    G: GPS              RINEX VERSION / TYPE
GR10 V3.11          Instituto Geografico20190213 115942 UTC PGM / RUN BY / DATE
GPSA   8.3819D-09 -7.4506D-09 -5.9605D-08  5.9605D-08       IONOSPHERIC CORR
GPSB   8.8064D+04 -1.6384D+04 -1.9661D+05  6.5536D+04       IONOSPHERIC CORR
GPUT -9.3132257462D-10 6.217248938D-15 503808 2040          TIME SYSTEM CORR
    18    18  1929     7                                    LEAP SECONDS
                                                            END OF HEADER
G17 2019 02 13 12 00 00 9.181909263134D-06 5.456968210638D-12 0.000000000000D+00
     6.700000000000D+01-6.671875000000D+01 3.898733826484D-09 1.733940798851D+00
    -3.548339009285D-06 1.299059484154D-02 6.018206477165D-06 5.153697151184D+03
     3.024000000000D+05 2.048909664154D-08-2.101070808181D+00-3.241002559662D-07
     9.837656695375D-01 2.747500000000D+02-1.722707381540D+00-7.942473693053D-09
    -3.928735076157D-11 1.000000000000D+00 2.040000000000D+03 0.000000000000D+00
     2.000000000000D+00 0.000000000000D+00-1.117587089539D-08 6.700000000000D+01
     3.000000000000D+05                   
G18 2019 02 13 00 00 00 2.539250999689D-05 3.865352482535D-12 0.000000000000D+00
     7.000000000000D+01-1.487500000000D+01 4.783413534088D-09-6.380276157712D-01
    -7.264316082001D-07 1.504819002002D-02 8.773058652878D-06 5.153737201691D+03
     2.592000000000D+05-1.583248376846D-07-1.153114729731D+00 1.750886440277D-07
     9.527023508484D-01 2.069687500000D+02 1.374556972935D+00-8.486067764499D-09
     2.321525272275D-10 1.000000000000D+00 2.040000000000D+03 0.000000000000D+00
     2.000000000000D+00 0.000000000000D+00-6.053596735001D-09 7.000000000000D+01
     2.526600000000D+05                   
G19 2019 02 13 12 00 00-3.529428504407D-04 4.092726157978D-12 0.000000000000D+00
     5.400000000000D+01-6.212500000000D+01 3.968736742387D-09-1.749038958996D+00
    -2.937391400337D-06 9.381723124534D-03 5.904585123062D-06 5.153624897003D+03
     3.024000000000D+05 2.011656761169D-07-2.054603503397D+00 1.098960638046D-07
     9.814871746290D-01 2.705312500000D+02 1.343331223526D+00-7.897828976278D-09
    -1.357199389945D-11 1.000000000000D+00 2.040000000000D+03 0.000000000000D+00
     2.000000000000D+00 0.000000000000D+00-1.536682248116D-08 5.400000000000D+01
     3.018900000000D+05                   
G20 2019 02 13 12 00 00 5.221604369581D-04 3.410605131648D-13 0.000000000000D+00
     1.700000000000D+01-1.234375000000D+01 5.509872365443D-09-6.985759503323D-01
    -7.040798664093D-07 4.408188513480D-03 7.081776857376D-06 5.153670070648D+03
     3.024000000000D+05-3.725290298462D-09-1.763223049889D-01-1.862645149231D-08
     9.303400943878D-01 2.279375000000D+02 2.276447734546D+00-8.598572450771D-09
     2.717970357232D-10 1.000000000000D+00 2.040000000000D+03 0.000000000000D+00
     2.000000000000D+00 0.000000000000D+00-8.381903171539D-09 1.700000000000D+01
     3.012600000000D+05                   
G21 2019 02 13 11 59 44-2.509756013751D-04 7.162270776462D-12 0.000000000000D+00
     2.000000000000D+00-2.671875000000D+01 4.618763818624D-09-2.147719766429D+00
    -1.108273863792D-06 2.473975159228D-02 8.093193173409D-06 5.153797325134D+03
     3.023840000000D+05 3.166496753693D-07-1.162036879843D+00 2.812594175339D-07
     9.470178052185D-01 2.069062500000D+02-1.477611679657D+00-7.813182593274D-09
     3.353711124101D-10 1.000000000000D+00 2.040000000000D+03 0.000000000000D+00
     2.000000000000D+00 0.000000000000D+00-1.024454832077D-08 2.000000000000D+00
     2.955900000000D+05                   
G22 2019 02 13 00 00 00-6.439555436373D-04-8.185452315956D-12 0.000000000000D+00
     9.000000000000D+01-2.200000000000D+01 5.554517082217D-09 9.899602147423D-01
    -1.333653926849D-06 7.175231236033D-03 6.878748536110D-06 5.153574954987D+03
     2.592000000000D+05-4.842877388000D-08-1.269532085679D-01-1.341104507446D-07
     9.270689027695D-01 2.322500000000D+02-1.419736302699D+00-8.661075054255D-09
     4.321608583773D-11 1.000000000000D+00 2.040000000000D+03 0.000000000000D+00
     2.000000000000D+00 0.000000000000D+00-1.816079020500D-08 9.000000000000D+01
     2.583600000000D+05                   
G23 2019 02 13 10 00 00-1.973891630769D-04 1.250555214938D-12 0.000000000000D+00
     7.700000000000D+01-7.468750000000D+00 5.151286000310D-09-6.845143993095D-01
    -3.837049007416D-07 1.278875581920D-02 8.450821042061D-06 5.153636442184D+03
     2.952000000000D+05 4.842877388000D-08 9.701681458889D-01 2.197921276093D-07
     9.432653237926D-01 2.054375000000D+02-2.299577652880D+00-8.445351782801D-09
    -3.853731951976D-10 1.000000000000D+00 2.040000000000D+03 0.000000000000D+00
     2.000000000000D+00 0.000000000000D+00-2.002343535423D-08 7.700000000000D+01
     2.880000000000D+05                   
G24 2019 02 13 12 00 00-6.210757419467D-05-5.684341886081D-13 0.000000000000D+00
     5.000000000000D+01 5.000000000000D+01 5.065568144103D-09-9.805449222604D-02
     2.652406692505D-06 8.167752646841D-03 8.849427103996D-06 5.153729183197D+03
     3.024000000000D+05 6.705522537231D-08 1.986908555082D+00 1.005828380585D-07
     9.391347760587D-01 1.946250000000D+02 5.945421125397D-01-8.406421589773D-09
    -1.882221259213D-10 1.000000000000D+00 2.040000000000D+03 0.000000000000D+00
     2.000000000000D+00 0.000000000000D+00 2.793967723846D-09 5.000000000000D+01
     2.979300000000D+05                   
G25 2019 02 12 22 00 00-7.195412181318D-04-5.456968210638D-12 0.000000000000D+00
     2.200000000000D+01 2.181250000000D+01 4.440542109260D-09-3.105339646181D+00
     1.044943928719D-06 8.178782765754D-03 4.809349775314D-06 5.153756685257D+03
     2.520000000000D+05 5.587935447693D-09 3.086360893948D+00-1.881271600723D-07
     9.717086878643D-01 2.903437500000D+02 8.562746088973D-01-8.074264896971D-09
    -8.821796034643D-11 1.000000000000D+00 2.040000000000D+03 0.000000000000D+00
     2.000000000000D+00 0.000000000000D+00 5.587935447693D-09 2.200000000000D+01
     2.448000000000D+05                   
G26 2019 02 13 00 00 00 1.228344626725D-04 1.034550223267D-11 0.000000000000D+00
     8.100000000000D+01 2.481250000000D+01 4.955206404236D-09-2.763092093008D+00
     1.315027475357D-06 3.641086746939D-03 4.814937710762D-06 5.153798767090D+03
     2.592000000000D+05-5.774199962616D-08 3.059650729385D+00-6.146728992462D-08
     9.530549872514D-01 2.851250000000D+02 1.250328272277D-01-8.359276768859D-09
    -3.142988060926D-11 1.000000000000D+00 2.040000000000D+03 0.000000000000D+00
     2.000000000000D+00 0.000000000000D+00 7.450580596924D-09 8.100000000000D+01
     2.520000000000D+05                   
G27 2019 02 13 00 00 00-6.653228774667D-05-7.275957614183D-12 0.000000000000D+00
     9.900000000000D+01-4.278125000000D+01 4.224461680071D-09 1.769957315312D+00
    -2.119690179825D-06 6.662978907116D-03 7.450580596924D-06 5.153637773514D+03
     2.592000000000D+05-9.872019290924D-08-2.156282528771D+00 1.862645149231D-07
     9.783397809903D-01 2.462500000000D+02 4.269736343086D-01-8.054264063856D-09
    -1.796503403006D-10 1.000000000000D+00 2.040000000000D+03 0.000000000000D+00
     2.000000000000D+00 0.000000000000D+00 1.396983861923D-09 9.900000000000D+01
     2.520000000000D+05                   
G28 2019 02 13 12 00 00 7.644728757441D-04 7.958078640513D-13 0.000000000000D+00
     6.900000000000D+01 5.046875000000D+01 3.929092233891D-09 2.616492977195D+00
     2.559274435043D-06 1.930964458734D-02 4.358589649200D-06 5.153701173782D+03
     3.024000000000D+05 1.657754182816D-07-3.111313695984D+00-3.539025783539D-08
     9.835437009773D-01 3.030312500000D+02-1.474136327581D+00-7.707463903951D-09
    -5.214502919263D-11 1.000000000000D+00 2.040000000000D+03 0.000000000000D+00
     2.800000000000D+00 0.000000000000D+00-1.117587089539D-08 6.900000000000D+01
     2.952000000000D+05                   
G29 2019 02 12 22 00 00 2.719350159168D-04-8.526512829121D-12 0.000000000000D+00
     7.000000000000D+01-3.984375000000D+01 3.891233514066D-09 1.524345652464D+00
    -2.266839146614D-06 6.829454796389D-04 7.761642336845D-06 5.153567419052D+03
     2.520000000000D+05-2.980232238770D-08-2.089686960467D+00 1.862645149231D-09
     9.851760337476D-01 2.416562500000D+02 1.447931694841D+00-7.833897741857D-09
    -1.742929742877D-10 1.000000000000D+00 2.040000000000D+03 0.000000000000D+00
     2.000000000000D+00 0.000000000000D+00-1.024454832077D-08 7.000000000000D+01
     2.448000000000D+05                   
G30 2019 02 13 12 00 00-5.197618156672D-05-6.366462912410D-12 0.000000000000D+00
     8.600000000000D+01 7.321875000000D+01 4.793771108380D-09-1.005828399373D+00
     3.665685653687D-06 3.664256073534D-03 9.465962648392D-06 5.153630561829D+03
     3.024000000000D+05 5.774199962616D-08 2.080850474449D+00-1.154839992523D-07
     9.415399348033D-01 1.863125000000D+02-3.023506655245D+00-8.178197797622D-09
    -1.489347751598D-10 1.000000000000D+00 2.040000000000D+03 0.000000000000D+00
     2.000000000000D+00 0.000000000000D+00 3.725290298462D-09 8.600000000000D+01
     2.952000000000D+05                   
G31 2019 02 13 00 00 00 5.907332524657D-05-2.614797267597D-12 0.000000000000D+00
     5.700000000000D+01 6.640625000000D+01 4.613406452611D-09-1.440331738867D+00
     3.123655915260D-06 9.250009665266D-03 7.813796401024D-06 5.153562597275D+03
     2.592000000000D+05-1.117587089539D-08 2.065101813151D+00-1.173466444016D-07
     9.606134299995D-01 2.282187500000D+02-1.676130343271D-02-8.101051727036D-09
     1.878649681871D-10 1.000000000000D+00 2.040000000000D+03 0.000000000000D+00
     2.800000000000D+00 0.000000000000D+00-1.350417733192D-08 5.700000000000D+01
     2.520000000000D+05                   
